<?xml version="1.0" encoding="UTF-8"?>
<ndm xmlns:xsi="http://www.w3.org/2001/XMLSchema-instance" xsi:noNamespaceSchemaLocation="https://sanaregistry.org/r/ndmxml_unqualified/ndmxml-2.0.0-master-2.0.xsd">
<omm id="CCSDS_OMM_VERS" version="2.0">
<header><CREATION_DATE/><ORIGINATOR/></header><body><segment><metadata><OBJECT_NAME>ORBCOMM FM05</OBJECT_NAME><OBJECT_ID>1997-084F</OBJECT_ID><CENTER_NAME>EARTH</CENTER_NAME><REF_FRAME>TEME</REF_FRAME><TIME_SYSTEM>UTC</TIME_SYSTEM><MEAN_ELEMENT_THEORY>SGP4</MEAN_ELEMENT_THEORY></metadata><data><meanElements><EPOCH>2025-07-01T15:45:34.086528</EPOCH><MEAN_MOTION>14.45978273</MEAN_MOTION><ECCENTRICITY>.00033</ECCENTRICITY><INCLINATION>45.0159</INCLINATION><RA_OF_ASC_NODE>298.5802</RA_OF_ASC_NODE><ARG_OF_PERICENTER>254.2597</ARG_OF_PERICENTER><MEAN_ANOMALY>105.7891</MEAN_ANOMALY></meanElements><tleParameters><EPHEMERIS_TYPE>0</EPHEMERIS_TYPE><CLASSIFICATION_TYPE>U</CLASSIFICATION_TYPE><NORAD_CAT_ID>25117</NORAD_CAT_ID><ELEMENT_SET_NO>999</ELEMENT_SET_NO><REV_AT_EPOCH>44364</REV_AT_EPOCH><BSTAR>.29334E-3</BSTAR><MEAN_MOTION_DOT>.909E-5</MEAN_MOTION_DOT><MEAN_MOTION_DDOT>0</MEAN_MOTION_DDOT></tleParameters></data></segment></body></omm>
<omm id="CCSDS_OMM_VERS" version="2.0">
<header><CREATION_DATE/><ORIGINATOR/></header><body><segment><metadata><OBJECT_NAME>ORBCOMM FM06</OBJECT_NAME><OBJECT_ID>1997-084G</OBJECT_ID><CENTER_NAME>EARTH</CENTER_NAME><REF_FRAME>TEME</REF_FRAME><TIME_SYSTEM>UTC</TIME_SYSTEM><MEAN_ELEMENT_THEORY>SGP4</MEAN_ELEMENT_THEORY></metadata><data><meanElements><EPOCH>2025-07-01T07:20:34.606176</EPOCH><MEAN_MOTION>14.46108743</MEAN_MOTION><ECCENTRICITY>.0002457</ECCENTRICITY><INCLINATION>45.0149</INCLINATION><RA_OF_ASC_NODE>299.9865</RA_OF_ASC_NODE><ARG_OF_PERICENTER>240.1431</ARG_OF_PERICENTER><MEAN_ANOMALY>141.2719</MEAN_ANOMALY></meanElements><tleParameters><EPHEMERIS_TYPE>0</EPHEMERIS_TYPE><CLASSIFICATION_TYPE>U</CLASSIFICATION_TYPE><NORAD_CAT_ID>25118</NORAD_CAT_ID><ELEMENT_SET_NO>999</ELEMENT_SET_NO><REV_AT_EPOCH>44357</REV_AT_EPOCH><BSTAR>.30504E-3</BSTAR><MEAN_MOTION_DOT>.954E-5</MEAN_MOTION_DOT><MEAN_MOTION_DDOT>0</MEAN_MOTION_DDOT></tleParameters></data></segment></body></omm>
<omm id="CCSDS_OMM_VERS" version="2.0">
<header><CREATION_DATE/><ORIGINATOR/></header><body><segment><metadata><OBJECT_NAME>ORBCOMM FM07</OBJECT_NAME><OBJECT_ID>1997-084H</OBJECT_ID><CENTER_NAME>EARTH</CENTER_NAME><REF_FRAME>TEME</REF_FRAME><TIME_SYSTEM>UTC</TIME_SYSTEM><MEAN_ELEMENT_THEORY>SGP4</MEAN_ELEMENT_THEORY></metadata><data><meanElements><EPOCH>2025-07-01T07:33:59.424768</EPOCH><MEAN_MOTION>14.46107166</MEAN_MOTION><ECCENTRICITY>.0004125</ECCENTRICITY><INCLINATION>45.0145</INCLINATION><RA_OF_ASC_NODE>300.7100</RA_OF_ASC_NODE><ARG_OF_PERICENTER>254.9286</ARG_OF_PERICENTER><MEAN_ANOMALY>105.1109</MEAN_ANOMALY></meanElements><tleParameters><EPHEMERIS_TYPE>0</EPHEMERIS_TYPE><CLASSIFICATION_TYPE>U</CLASSIFICATION_TYPE><NORAD_CAT_ID>25119</NORAD_CAT_ID><ELEMENT_SET_NO>999</ELEMENT_SET_NO><REV_AT_EPOCH>44356</REV_AT_EPOCH><BSTAR>.31118E-3</BSTAR><MEAN_MOTION_DOT>.977E-5</MEAN_MOTION_DOT><MEAN_MOTION_DDOT>0</MEAN_MOTION_DDOT></tleParameters></data></segment></body></omm>
<omm id="CCSDS_OMM_VERS" version="2.0">
<header><CREATION_DATE/><ORIGINATOR/></header><body><segment><metadata><OBJECT_NAME>ORBCOMM FM03</OBJECT_NAME><OBJECT_ID>1998-007B</OBJECT_ID><CENTER_NAME>EARTH</CENTER_NAME><REF_FRAME>TEME</REF_FRAME><TIME_SYSTEM>UTC</TIME_SYSTEM><MEAN_ELEMENT_THEORY>SGP4</MEAN_ELEMENT_THEORY></metadata><data><meanElements><EPOCH>2025-07-01T13:25:36.673536</EPOCH><MEAN_MOTION>14.34531324</MEAN_MOTION><ECCENTRICITY>.0045916</ECCENTRICITY><INCLINATION>107.9655</INCLINATION><RA_OF_ASC_NODE>165.1237</RA_OF_ASC_NODE><ARG_OF_PERICENTER>225.6130</ARG_OF_PERICENTER><MEAN_ANOMALY>134.1245</MEAN_ANOMALY></meanElements><tleParameters><EPHEMERIS_TYPE>0</EPHEMERIS_TYPE><CLASSIFICATION_TYPE>U</CLASSIFICATION_TYPE><NORAD_CAT_ID>25158</NORAD_CAT_ID><ELEMENT_SET_NO>999</ELEMENT_SET_NO><REV_AT_EPOCH>42610</REV_AT_EPOCH><BSTAR>.2386E-3</BSTAR><MEAN_MOTION_DOT>.549E-5</MEAN_MOTION_DOT><MEAN_MOTION_DDOT>0</MEAN_MOTION_DDOT></tleParameters></data></segment></body></omm>
<omm id="CCSDS_OMM_VERS" version="2.0">
<header><CREATION_DATE/><ORIGINATOR/></header><body><segment><metadata><OBJECT_NAME>ORBCOMM FM04</OBJECT_NAME><OBJECT_ID>1998-007C</OBJECT_ID><CENTER_NAME>EARTH</CENTER_NAME><REF_FRAME>TEME</REF_FRAME><TIME_SYSTEM>UTC</TIME_SYSTEM><MEAN_ELEMENT_THEORY>SGP4</MEAN_ELEMENT_THEORY></metadata><data><meanElements><EPOCH>2025-07-01T14:39:42.103008</EPOCH><MEAN_MOTION>14.34778676</MEAN_MOTION><ECCENTRICITY>.0041641</ECCENTRICITY><INCLINATION>107.9644</INCLINATION><RA_OF_ASC_NODE>168.4610</RA_OF_ASC_NODE><ARG_OF_PERICENTER>223.1469</ARG_OF_PERICENTER><MEAN_ANOMALY>136.6405</MEAN_ANOMALY></meanElements><tleParameters><EPHEMERIS_TYPE>0</EPHEMERIS_TYPE><CLASSIFICATION_TYPE>U</CLASSIFICATION_TYPE><NORAD_CAT_ID>25159</NORAD_CAT_ID><ELEMENT_SET_NO>999</ELEMENT_SET_NO><REV_AT_EPOCH>42629</REV_AT_EPOCH><BSTAR>.25072E-3</BSTAR><MEAN_MOTION_DOT>.586E-5</MEAN_MOTION_DOT><MEAN_MOTION_DDOT>0</MEAN_MOTION_DDOT></tleParameters></data></segment></body></omm>
<omm id="CCSDS_OMM_VERS" version="2.0">
<header><CREATION_DATE/><ORIGINATOR/></header><body><segment><metadata><OBJECT_NAME>ORBCOMM FM17</OBJECT_NAME><OBJECT_ID>1998-046A</OBJECT_ID><CENTER_NAME>EARTH</CENTER_NAME><REF_FRAME>TEME</REF_FRAME><TIME_SYSTEM>UTC</TIME_SYSTEM><MEAN_ELEMENT_THEORY>SGP4</MEAN_ELEMENT_THEORY></metadata><data><meanElements><EPOCH>2025-07-01T07:42:32.754816</EPOCH><MEAN_MOTION>14.35112148</MEAN_MOTION><ECCENTRICITY>.0005189</ECCENTRICITY><INCLINATION>44.9923</INCLINATION><RA_OF_ASC_NODE>190.8992</RA_OF_ASC_NODE><ARG_OF_PERICENTER>281.1115</ARG_OF_PERICENTER><MEAN_ANOMALY>78.9148</MEAN_ANOMALY></meanElements><tleParameters><EPHEMERIS_TYPE>0</EPHEMERIS_TYPE><CLASSIFICATION_TYPE>U</CLASSIFICATION_TYPE><NORAD_CAT_ID>25413</NORAD_CAT_ID><ELEMENT_SET_NO>999</ELEMENT_SET_NO><REV_AT_EPOCH>40520</REV_AT_EPOCH><BSTAR>.18566E-3</BSTAR><MEAN_MOTION_DOT>.394E-5</MEAN_MOTION_DOT><MEAN_MOTION_DDOT>0</MEAN_MOTION_DDOT></tleParameters></data></segment></body></omm>
<omm id="CCSDS_OMM_VERS" version="2.0">
<header><CREATION_DATE/><ORIGINATOR/></header><body><segment><metadata><OBJECT_NAME>ORBCOMM FM18</OBJECT_NAME><OBJECT_ID>1998-046B</OBJECT_ID><CENTER_NAME>EARTH</CENTER_NAME><REF_FRAME>TEME</REF_FRAME><TIME_SYSTEM>UTC</TIME_SYSTEM><MEAN_ELEMENT_THEORY>SGP4</MEAN_ELEMENT_THEORY></metadata><data><meanElements><EPOCH>2025-07-01T12:24:28.758528</EPOCH><MEAN_MOTION>14.38583738</MEAN_MOTION><ECCENTRICITY>.0006232</ECCENTRICITY><INCLINATION>44.9929</INCLINATION><RA_OF_ASC_NODE>106.9888</RA_OF_ASC_NODE><ARG_OF_PERICENTER>350.1913</ARG_OF_PERICENTER><MEAN_ANOMALY>9.8813</MEAN_ANOMALY></meanElements><tleParameters><EPHEMERIS_TYPE>0</EPHEMERIS_TYPE><CLASSIFICATION_TYPE>U</CLASSIFICATION_TYPE><NORAD_CAT_ID>25414</NORAD_CAT_ID><ELEMENT_SET_NO>999</ELEMENT_SET_NO><REV_AT_EPOCH>40631</REV_AT_EPOCH><BSTAR>.31837E-3</BSTAR><MEAN_MOTION_DOT>.841E-5</MEAN_MOTION_DOT><MEAN_MOTION_DDOT>0</MEAN_MOTION_DDOT></tleParameters></data></segment></body></omm>
<omm id="CCSDS_OMM_VERS" version="2.0">
<header><CREATION_DATE/><ORIGINATOR/></header><body><segment><metadata><OBJECT_NAME>ORBCOMM FM19</OBJECT_NAME><OBJECT_ID>1998-046C</OBJECT_ID><CENTER_NAME>EARTH</CENTER_NAME><REF_FRAME>TEME</REF_FRAME><TIME_SYSTEM>UTC</TIME_SYSTEM><MEAN_ELEMENT_THEORY>SGP4</MEAN_ELEMENT_THEORY></metadata><data><meanElements><EPOCH>2025-07-01T13:37:53.921280</EPOCH><MEAN_MOTION>14.38391895</MEAN_MOTION><ECCENTRICITY>.0005071</ECCENTRICITY><INCLINATION>44.9942</INCLINATION><RA_OF_ASC_NODE>108.7684</RA_OF_ASC_NODE><ARG_OF_PERICENTER>344.4661</ARG_OF_PERICENTER><MEAN_ANOMALY>185.6374</MEAN_ANOMALY></meanElements><tleParameters><EPHEMERIS_TYPE>0</EPHEMERIS_TYPE><CLASSIFICATION_TYPE>U</CLASSIFICATION_TYPE><NORAD_CAT_ID>25415</NORAD_CAT_ID><ELEMENT_SET_NO>999</ELEMENT_SET_NO><REV_AT_EPOCH>40627</REV_AT_EPOCH><BSTAR>.31596E-3</BSTAR><MEAN_MOTION_DOT>.83E-5</MEAN_MOTION_DOT><MEAN_MOTION_DDOT>0</MEAN_MOTION_DDOT></tleParameters></data></segment></body></omm>

</ndm>
