ORBCOMM FM05            
1 25117U 97084F   25182.65664452  .00000909  00000+0  29334-3 0  9991
2 25117  45.0159 298.5802 0003300 254.2597 105.7891 14.45978273443648
ORBCOMM FM06            
1 25118U 97084G   25182.30595609  .00000954  00000+0  30504-3 0  9992
2 25118  45.0149 299.9865 0002457 240.1431 141.2719 14.46108743443579
ORBCOMM FM07            
1 25119U 97084H   25182.31527112  .00000977  00000+0  31118-3 0  9995
2 25119  45.0145 300.7100 0004125 254.9286 105.1109 14.46107166443563
ORBCOMM FM03            
1 25158U 98007B   25182.55945224  .00000549  00000+0  23860-3 0  9998
2 25158 107.9655 165.1237 0045916 225.6130 134.1245 14.34531324426108
ORBCOMM FM04            
1 25159U 98007C   25182.61090397  .00000586  00000+0  25072-3 0  9996
2 25159 107.9644 168.4610 0041641 223.1469 136.6405 14.34778676426295
ORBCOMM FM17            
1 25413U 98046A   25182.32121244  .00000394  00000+0  18566-3 0  9993
2 25413  44.9923 190.8992 0005189 281.1115  78.9148 14.35112148405206
ORBCOMM FM18            
1 25414U 98046B   25182.51699952  .00000841  00000+0  31837-3 0  9994
2 25414  44.9929 106.9888 0006232 350.1913   9.8813 14.38583738406313
ORBCOMM FM19            
1 25415U 98046C   25182.56798520  .00000830  00000+0  31596-3 0  9991
2 25415  44.9942 108.7684 0005071 344.4661 185.6374 14.38391895406270
